satname,norad_id,inclination_deg,eccentricity,mean_motion_rev_per_day,perigee_km,apogee_km,l1,l2
STARLINK-1316,45415,53.1557,0.0004063,15.39879764,443.69170898227003,449.2373801974045,1 45415U 20019BH  26170.83550838  .00040486  00000+0  10079-2 0  9997,2 45415  53.1557  11.3702 0004063 120.2885 239.8523 15.39879764345687
STARLINK-1286,45417,53.0463,0.0002239,15.65401806,370.57204407104473,373.5947927744137,1 45417U 20019BK  26170.80962331  .00053643  00000+0  52958-3 0  9993,2 45417  53.0463 355.6456 0002239 274.6476  85.4283 15.65401806346133
STARLINK-1308,45419,53.0469,0.0006622,15.66964231,363.12853752520095,372.06258572982097,1 45419U 20019BM  26171.27032463  .00044922  00000+0  41750-3 0  9999,2 45419  53.0469  12.6396 0006622  82.3627 277.8140 15.66964231345681
STARLINK-1329,45531,53.042,0.0001435,15.74861735,344.05988561530285,345.98943301152667,1 45531U 20025A   26170.62945853  .00064137  00000+0  42626-3 0  9998,2 45531  53.0420 298.8421 0001435 260.4243  99.6614 15.74861735341440
STARLINK-1338,45532,53.043,0.0002079,15.71575284,352.99460844909663,355.793994964346,1 45532U 20025B   26171.50003471  .00586708  00000+0  41763-2 0  9991,2 45532  53.0430 301.6590 0002079  94.7663 134.0047 15.71575284  6014
STARLINK-1350,45535,53.0718,0.0001235,15.38488505,449.734914558494,451.42160722793506,1 45535U 20025E   26171.44128859  .00007743  00000+0  21089-3 0  9992,2 45535  53.0718 269.6661 0001235  70.3565 289.7571 15.38488505341960
STARLINK-1362,45538,53.158,0.0003001,15.38473696,448.572771335329,452.6713925363065,1 45538U 20025H   26171.47336801  .00059168  00000+0  15340-2 0  9996,2 45538  53.1580 340.8654 0003001 236.5670 123.5048 15.38473696340958
STARLINK-1368,45540,53.1564,0.0002807,15.38532015,448.5327310755456,452.3662995452414,1 45540U 20025K   26170.90112633  .00043282  00000+0  11251-2 0  9998,2 45540  53.1564 343.9139 0002807 194.7883 165.3040 15.38532015340855
STARLINK-1371,45542,53.043,0.0001558,15.67494598,365.0231004215366,367.12459652191956,1 45542U 20025M   26171.50003471  .01113168  00000+0  91220-2 0  9992,2 45542  53.0430 311.8091 0001558  86.8617  71.1504 15.67494598  5983
STARLINK-1372,45543,53.1573,0.0001759,15.39059641,447.68788512044284,450.0896327824412,1 45543U 20025N   26171.44038390  .00040624  00000+0  10390-2 0  9998,2 45543  53.1573 340.8326 0001759 188.2540 171.8436 15.39059641340047
STARLINK-1373,45544,53.0457,0.0001882,15.71125311,354.41240843666765,356.94701704734416,1 45544U 20025P   26170.63649844  .00050329  00000+0  39383-3 0  9998,2 45544  53.0457 311.0118 0001882  59.9641 300.1562 15.71125311341277
STARLINK-1327,45555,53.0401,0.0001907,15.6994266,357.77626511310973,360.34583244891473,1 45555U 20025AA  26171.50003471  .01360653  00000+0  10052-1 0  9992,2 45555  53.0401 284.1258 0001907  67.4165 144.6344 15.69942660  5969
STARLINK-1356,45564,53.0428,0.0002028,15.66221143,368.3605847784984,371.0975192491951,1 45564U 20025AK  26171.37480339  .00040255  00000+0  38658-3 0  9995,2 45564  53.0428 298.1083 0002028 348.0983  11.9984 15.66221143341513
STARLINK-1357,45565,53.0437,0.0002544,15.70907153,354.5898909943544,358.01637413380286,1 45565U 20025AL  26171.43527632  .00053216  00000+0  41980-3 0  9994,2 45565  53.0437 254.1295 0002544 140.0533 220.0671 15.70907153342148
STARLINK-1361,45567,53.0414,0.0001755,15.68444133,362.1684820927876,364.5347445960715,1 45567U 20025AN  26171.50003471  .01330906  00000+0  10478-1 0  9995,2 45567  53.0414 295.9363 0001755  81.1077 218.2202 15.68444133  5949
STARLINK-1376,45570,53.1578,0.0001614,15.39452389,446.62586589923285,448.8292549793432,1 45570U 20025AR  26170.82998656  .00045690  00000+0  11517-2 0  9999,2 45570  53.1578 320.0762 0001614 177.7820 182.3192 15.39452389341188
STARLINK-1320,45572,53.0382,0.0009835,15.90632831,293.94242842579024,307.0793288030245,1 45572U 20025AT  26171.50003471  .00210395  27341-4  67181-3 0  9996,2 45572  53.0382 191.0935 0009835  18.8673 245.3433 15.90632831  6011
STARLINK-1321,45573,53.0408,0.000185,15.67965098,363.4771926446747,365.9720514448318,1 45573U 20025AU  26171.50003471  .01052914  00000+0  85120-2 0  9999,2 45573  53.0408 279.7703 0001850  80.8779 195.4474 15.67965098  5986
STARLINK-1331,45578,53.0447,0.0001736,15.68112288,363.1321845774619,365.4731596316169,1 45578U 20025AZ  26171.50003471  .01223297  00000+0  96811-2 0  9997,2 45578  53.0447 286.6987 0001736  87.7123  47.0434 15.68112288  5992
STARLINK-1333,45580,53.1574,0.000106,15.36362268,456.15266312692984,457.6016861319513,1 45580U 20025BB  26170.83614449  .00040738  00000+0  11369-2 0  9999,2 45580  53.1574 321.8169 0001060 242.6591 117.4304 15.36362268341162
STARLINK-1335,45581,53.1544,0.0002359,15.38099262,450.11913073622145,453.3414621266784,1 45581U 20025BC  26171.43747646  .00057366  00000+0  15062-2 0  9992,2 45581  53.1544 315.5667 0002359 187.9789 172.1178 15.38099262341299
STARLINK-1337,45582,53.0434,0.000231,15.76402701,339.0905547519387,342.1946309238301,1 45582U 20025BD  26171.44075576  .00070319  00000+0  43622-3 0  9997,2 45582  53.0434 275.3431 0002310 101.6857 258.4422 15.76402701341833
STARLINK-1347,45586,53.0372,6.88e-05,15.69960225,358.5472815889789,359.4743131258947,1 45586U 20025BH  26171.47982036  .00052085  00000+0  42757-3 0  9990,2 45586  53.0372 246.1899 0000688  41.0803 319.0265 15.69960225342243
STARLINK-1364,45589,53.0424,0.0002146,15.70649906,355.5930719452417,358.48380924434514,1 45589U 20025BL  26170.71779716  .00056640  00000+0  45115-3 0  9990,2 45589  53.0424 286.5947 0002146 340.9930  19.1006 15.70649906341612
STARLINK-1365,45590,53.0447,0.00015,15.64837496,372.69338253580827,374.7189354835118,1 45590U 20025BM  26171.50003471  .01217814  00000+0  10991-1 0  9993,2 45590  53.0447 317.7581 0001500  95.2083 323.5016 15.64837496  5999
STARLINK-1443,45660,53.135,0.0001273,15.33619047,464.15424746188637,465.89651660435266,1 45660U 20035D   26171.37494870  .00036571  00000+0  11154-2 0  9995,2 45660  53.1350 308.2209 0001273  77.9796 282.1348 15.33619047334470
STARLINK-1446,45663,53.02,0.0001537,15.48404558,420.34769860837423,422.43787406469437,1 45663U 20035G   26171.44229707  .00027069  00000+0  50881-3 0  9994,2 45663  53.0200 229.3980 0001537 294.1509  65.9337 15.48404558335564
STARLINK-1448,45665,53.0421,0.0001861,15.72442705,350.6656587354473,353.1705852518535,1 45665U 20035J   26171.50003471  .01104682  00000+0  73866-2 0  9996,2 45665  53.0421 270.1709 0001861  84.4584 184.0288 15.72442705  6013
STARLINK-1451,45668,53.0533,7.91e-05,15.14842419,520.911246054874,522.0027618262966,1 45668U 20035M   26171.50003471 -.00006099  00000+0 -30829-3 0  9996,2 45668  53.0533 320.1272 0000791 148.0409 219.0956 15.14842419  5848
STARLINK-1452,45669,53.0237,0.0006669,15.61164723,379.7816717573669,388.80139893781325,1 45669U 20035N   26171.47109188  .00069211  00000+0  80246-3 0  9996,2 45669  53.0237 246.2395 0006669 353.7036   6.3891 15.61164723335337
STARLINK-1453,45670,53.0375,0.0001651,15.71945897,352.22468802397816,354.4474204264843,1 45670U 20035P   26171.50003471  .00351709  00000+0  25379-2 0  9991,2 45670  53.0375 230.3946 0001651  70.5966  49.4149 15.71945897  5967
STARLINK-1454,45671,53.0411,0.0001873,15.69904944,357.90705563486335,360.4308504448718,1 45671U 20035Q   26171.50003471  .01132979  00000+0  84004-2 0  9999,2 45671  53.0411 271.5509 0001873  75.4433  90.6090 15.69904944  5845
STARLINK-1456,45673,53.04,0.0001344,15.6892776,361.0602820114309,362.87202173865535,1 45673U 20035S   26171.50003471  .00457360  00000+0  36922-2 0  9990,2 45673  53.0400 266.2376 0001344  96.7102 199.2082 15.68927760  6006
STARLINK-1458,45675,53.046,0.0002619,15.59251564,388.04941951254386,391.59447640948565,1 45675U 20035U   26170.57503695  .00078444  00000+0  97722-3 0  9999,2 45675  53.0460 286.0879 0002619 354.1955   5.9026 15.59251564334664
STARLINK-1460,45676,53.1565,0.0002109,15.36156455,456.0460275393416,458.9292940212581,1 45676U 20035V   26170.74811270  .00041152  00000+0  11559-2 0  9999,2 45676  53.1565 309.4349 0002109 246.6458 113.4323 15.36156455334361
STARLINK-1392,45677,53.1522,0.0002499,15.39608792,445.5596088412349,448.9709448992144,1 45677U 20035W   26170.80505949  .00046816  00000+0  11736-2 0  9999,2 45677  53.1522 307.5133 0002499 276.6083  83.4638 15.39608792334436
STARLINK-1394,45679,53.0383,0.000144,15.68252382,362.93027210396485,364.8719790841351,1 45679U 20035Y   26171.50003471 -.00015349  00000+0 -12970-3 0  9993,2 45679  53.0383 256.5410 0001440  88.0620 179.3755 15.68252382  6006
STARLINK-1402,45685,53.0403,0.0004045,15.59789624,385.5284131506669,391.00243271081763,1 45685U 20035AE  26171.45475979  .00115264  00000+0  13973-2 0  9998,2 45685  53.0403 248.2587 0004045 249.4696 110.5882 15.59789624335310
STARLINK-1404,45686,53.1556,0.0003225,15.46033902,426.14675943393286,430.5369382914496,1 45686U 20035AF  26170.62004440  .00039363  00000+0  79771-3 0  9992,2 45686  53.1556 289.4906 0003225 274.9411  85.1228 15.46033902334676
STARLINK-1413,45689,53.1568,0.0002439,15.36110465,455.9568536327952,459.2913378953099,1 45689U 20035AJ  26170.72237565  .00041746  00000+0  11740-2 0  9991,2 45689  53.1568 294.2049 0002439 292.8224  67.2521 15.36110465334532
STARLINK-1417,45693,53.0483,0.0003128,15.17432874,511.446696600814,515.7581687899074,1 45693U 20035AN  26171.37808023  .00016495  00000+0  82814-3 0  9995,2 45693  53.0483 307.1110 0003128 185.7231 174.3727 15.17432874334469
STARLINK-1420,45695,53.0427,0.0001708,15.71683002,352.93681730671415,355.23654491618254,1 45695U 20035AQ  26171.44303985  .00558146  00000+0  39690-2 0  9999,2 45695  53.0427 239.7350 0001708 109.9079 250.2123 15.71683002335427
STARLINK-1422,45696,53.1576,0.0001954,15.35919283,456.8555150748216,459.52715218760386,1 45696U 20035AR  26170.66085333  .00011760  00000+0  34185-3 0  9998,2 45696  53.1576 294.4479 0001954 273.7187  86.3592 15.35919283334607
